ORBCOMM FM20            
1 25416U 98046D   26012.94026390  .00000636  00000+0  25615-3 0  9995
2 25416  44.9938 267.5568 0001412 325.3587  34.7169 14.37749160434448
ORBCOMM FM16            
1 25417U 98046E   26012.95301411  .00000864  00000+0  31888-3 0  9999
2 25417  44.9927 256.1737 0004299 289.4860  70.5524 14.39640810434479
ORBCOMM FM15            
1 25418U 98046F   26012.98237825  .00000801  00000+0  30141-3 0  9992
2 25418  44.9960 261.8218 0004130 291.4119  68.6289 14.39266679434460
ORBCOMM FM14            
1 25419U 98046G   26012.94339087  .00000836  00000+0  30992-3 0  9994
2 25419  44.9949 259.5955 0002833 291.4111  68.6435 14.39693511434439
ORBCOMM FM13            
1 25420U 98046H   26012.97138139  .00000648  00000+0  25747-3 0  9997
2 25420  44.9971 269.5886 0004806 266.3681  93.6617 14.38286387433432
ORBCOMM FM21            
1 25475U 98053A   26012.96146255  .00000677  00000+0  26904-3 0  9990
2 25475  45.0098 355.7045 0002528 259.3450 100.7113 14.37872428427434
ORBCOMM FM22            
1 25476U 98053B   26012.97542880  .00000876  00000+0  32667-3 0  9990
2 25476  45.0090 348.6874 0003511 237.2878 122.7633 14.39071156427487
ORBCOMM FM23            
1 25477U 98053C   26013.00079599  .00000750  00000+0  29159-3 0  9991
2 25477  45.0097 357.2993 0002985 240.4625 119.5926 14.38121314427595
